[{"OBJECT_NAME":"STARLINK-5187","OBJECT_ID":"2022-136Q","EPOCH":"2026-03-09T22:31:43.211712","MEAN_MOTION":15.08836526,"ECCENTRICITY":0.00011237,"INCLINATION":53.2194,"RA_OF_ASC_NODE":342.8557,"ARG_OF_PERICENTER":78.28,"MEAN_ANOMALY":281.8318,"EPHEMERIS_TYPE":0,"CLASSIFICATION_TYPE":"U","NORAD_CAT_ID":54065,"ELEMENT_SET_NO":999,"REV_AT_EPOCH":18688,"BSTAR":7.78517e-6,"MEAN_MOTION_DOT":-1.64e-6,"MEAN_MOTION_DDOT":0},{"OBJECT_NAME":"ICEYE-X65","OBJECT_ID":"2025-248H","EPOCH":"2026-03-09T01:43:36.801408","MEAN_MOTION":15.08278623,"ECCENTRICITY":0.0005141,"INCLINATION":45.3996,"RA_OF_ASC_NODE":300.9889,"ARG_OF_PERICENTER":200.5324,"MEAN_ANOMALY":159.5352,"EPHEMERIS_TYPE":0,"CLASSIFICATION_TYPE":"U","NORAD_CAT_ID":66300,"ELEMENT_SET_NO":999,"REV_AT_EPOCH":2040,"BSTAR":0.00023069723,"MEAN_MOTION_DOT":3.385e-5,"MEAN_MOTION_DDOT":0}]
